[{"OBJECT_NAME":"ONEWEB-0638","OBJECT_ID":"2023-029G","EPOCH":"2026-03-09T16:17:25.868832","MEAN_MOTION":13.14503651,"ECCENTRICITY":0.00010177,"INCLINATION":87.8977,"RA_OF_ASC_NODE":309.6166,"ARG_OF_PERICENTER":83.261,"MEAN_ANOMALY":276.8635,"EPHEMERIS_TYPE":0,"CLASSIFICATION_TYPE":"U","NORAD_CAT_ID":55802,"ELEMENT_SET_NO":999,"REV_AT_EPOCH":14632,"BSTAR":-0.00026598625,"MEAN_MOTION_DOT":-8.6e-7,"MEAN_MOTION_DDOT":0},{"OBJECT_NAME":"THORAD AGENA D DEB","OBJECT_ID":"1970-025SZ","EPOCH":"2026-03-09T06:11:39.909984","MEAN_MOTION":13.27971475,"ECCENTRICITY":0.01803988,"INCLINATION":99.7866,"RA_OF_ASC_NODE":87.0904,"ARG_OF_PERICENTER":221.063,"MEAN_ANOMALY":137.6795,"EPHEMERIS_TYPE":0,"CLASSIFICATION_TYPE":"U","NORAD_CAT_ID":42543,"ELEMENT_SET_NO":999,"REV_AT_EPOCH":59492,"BSTAR":0.001272053,"MEAN_MOTION_DOT":5.88e-6,"MEAN_MOTION_DDOT":0}]
